     2.100          NAVIGATION                              RINEX VERSION / TYPE
fic2rin                                 10/23/2017 00:04:24 PGM / RUN BY / DATE
                                                            END OF HEADER
12 17 10 22 20  0  0.0  .368035864085D-03 -.159161572810D-11  .000000000000D+00
     .170000000000D+02 -.557812500000D+02  .405231165219D-08 -.197332780818D+01
    -.277720391750D-05  .655321788508D-02  .306777656078D-05  .515370010567D+04
     .720000000000D+05  .409781932831D-07 -.902203479368D+00 -.894069671631D-07
     .988210171195D+00  .335406250000D+03  .911697021875D+00 -.800461913880D-08
    -.209294432239D-09  .100000000000D+01  .197200000000D+04  .000000000000D+00
     .240000000000D+01  .000000000000D+00 -.125728547573D-07  .170000000000D+02
     .648060000000D+05  .400000000000D+01
13 17 10 22 20  0  0.0 -.930861569941D-04 -.454747350886D-12  .000000000000D+00
     .116000000000D+03  .405937500000D+02  .425053419467D-08 -.822899553412D-01
     .220723450184D-05  .354828871787D-02  .110436230898D-04  .515366553497D+04
     .720000000000D+05  .577419996262D-07 -.294025772784D+01  .000000000000D+00
     .969566229708D+00  .170218750000D+03  .170465066854D+01 -.787068498848D-08
    -.293226499775D-09  .100000000000D+01  .197200000000D+04  .000000000000D+00
     .340000000000D+01  .000000000000D+00 -.116415321827D-07  .116000000000D+03
     .648060000000D+05  .400000000000D+01
14 17 10 22 20  0  0.0 -.868402421474D-04 -.909494701773D-12  .000000000000D+00
     .129000000000D+03  .186250000000D+02  .438411118726D-08  .115301595789D+01
     .101327896118D-05  .929810432717D-02  .114310532808D-04  .515371291733D+04
     .720000000000D+05 -.199303030968D-06 -.298068841967D+01  .186264514923D-08
     .962100672018D+00  .162781250000D+03 -.194756089077D+01 -.800961934708D-08
    -.394659296287D-09  .100000000000D+01  .197200000000D+04  .000000000000D+00
     .240000000000D+01  .000000000000D+00 -.977888703346D-08  .129000000000D+03
     .648060000000D+05  .400000000000D+01
15 17 10 22 20  0  0.0 -.356781296432D-03 -.227373675443D-12  .000000000000D+00
     .340000000000D+02  .142187500000D+02  .525236163909D-08  .631504417242D+00
     .989064574242D-06  .979714898858D-02  .103618949652D-04  .515363751221D+04
     .720000000000D+05  .745058059692D-08 -.313388926492D+01  .100582838058D-06
     .929219061727D+00  .161156250000D+03  .619294101274D+00 -.839070664947D-08
    -.532522181686D-09  .100000000000D+01  .197200000000D+04  .000000000000D+00
     .240000000000D+01  .000000000000D+00 -.107102096081D-07  .340000000000D+02
     .648060000000D+05  .400000000000D+01
16 17 10 22 20  0  0.0  .368072651327D-04 -.113686837722D-12  .000000000000D+00
     .700000000000D+01 -.462812500000D+02  .405981196461D-08  .233227252753D+01
    -.251270830631D-05  .934141222388D-02  .305660068989D-05  .515377945328D+04
     .720000000000D+05 -.124797224998D-06 -.883319025372D+00 -.242143869400D-07
     .988679608440D+00  .338781250000D+03  .458598837888D+00 -.802854870699D-08
    -.228938107620D-09  .100000000000D+01  .197200000000D+04  .000000000000D+00
     .240000000000D+01  .000000000000D+00 -.107102096081D-07  .700000000000D+01
     .648060000000D+05  .400000000000D+01
17 17 10 22 20  0  0.0 -.149348285049D-03  .238742359215D-11  .000000000000D+00
     .950000000000D+02 -.770312500000D+02  .372372653673D-08  .146529835231D+01
    -.405870378017D-05  .120080653578D-01  .106338411570D-04  .515370888138D+04
     .720000000000D+05 -.223517417908D-06  .132675478466D+00 -.216066837311D-06
     .981527077183D+00  .185625000000D+03 -.183966905566D+01 -.772603610613D-08
     .400016662300D-10  .100000000000D+01  .197200000000D+04  .000000000000D+00
     .340000000000D+01  .000000000000D+00 -.111758708954D-07  .950000000000D+02
     .648060000000D+05  .400000000000D+01
18 17 10 22 20  0  0.0  .631741713732D-03  .568434188608D-12  .000000000000D+00
     .500000000000D+02 -.190312500000D+02  .568273670879D-08  .295816394900D+01
    -.103563070297D-05  .181407086784D-01  .472553074360D-05  .515362751389D+04
     .720000000000D+05  .230967998505D-06  .212856416203D+01 -.184401869774D-06
     .925845897404D+00  .266906250000D+03 -.177655828842D+01 -.831427489435D-08
    -.159649507186D-09  .100000000000D+01  .197200000000D+04  .000000000000D+00
     .240000000000D+01  .000000000000D+00 -.111758708954D-07  .500000000000D+02
     .648060000000D+05  .400000000000D+01
19 17 10 22 20  0  0.0 -.479784794152D-03  .204636307899D-11  .000000000000D+00
     .800000000000D+01 -.616250000000D+02  .378837208662D-08 -.183895495853D+01
    -.320374965668D-05  .990653340705D-02  .103972852230D-04  .515368681145D+04
     .720000000000D+05  .163912773132D-06  .180128594005D+00 -.186264514923D-07
     .978876398360D+00  .181093750000D+03  .108495293939D+01 -.753317092966D-08
     .139291516336D-09  .100000000000D+01  .197200000000D+04  .000000000000D+00
     .240000000000D+01  .000000000000D+00 -.153668224812D-07  .800000000000D+01
     .648060000000D+05  .400000000000D+01
20 17 10 22 20  0  0.0  .490508042276D-03  .113686837722D-11  .000000000000D+00
     .600000000000D+02 -.151562500000D+02  .582059959419D-08  .452545652994D+00
    -.724568963051D-06  .463174853940D-02  .518560409546D-05  .515373924828D+04
     .720000000000D+05 -.521540641785D-07  .207741414717D+01 -.223517417908D-07
     .927203238148D+00  .263437500000D+03  .169432102153D+01 -.874072122898D-08
    -.107861635727D-09  .100000000000D+01  .197200000000D+04  .000000000000D+00
     .240000000000D+01  .000000000000D+00 -.838190317154D-08  .600000000000D+02
     .648060000000D+05  .400000000000D+01
21 17 10 22 20  0  0.0 -.468885526061D-03  .329691829393D-11  .000000000000D+00
     .650000000000D+02  .240937500000D+02  .482055793844D-08 -.242002672913D+01
     .118277966976D-05  .240222074790D-01  .813417136669D-05  .515358201981D+04
     .720000000000D+05  .311061739922D-06  .108836951873D+01  .134110450745D-06
     .941069630047D+00  .202156250000D+03 -.163167447477D+01 -.775710882900D-08
     .721815780810D-09  .100000000000D+01  .197200000000D+04  .000000000000D+00
     .240000000000D+01  .000000000000D+00 -.977888703346D-08  .650000000000D+02
     .648060000000D+05  .400000000000D+01
22 17 10 22 20  0  0.0 -.163713004440D-03 -.128466126625D-10  .000000000000D+00
     .300000000000D+02 -.172187500000D+02  .596882005388D-08  .816053515196D+00
    -.920146703720D-06  .717287790030D-02  .496208667755D-05  .515368659019D+04
     .720000000000D+05 -.111758708954D-06  .212814829099D+01  .931322574615D-08
     .923942540041D+00  .268156250000D+03 -.166518425477D+01 -.888358432266D-08
    -.102504269714D-09  .100000000000D+01  .197200000000D+04  .000000000000D+00
     .240000000000D+01  .000000000000D+00 -.176951289177D-07  .300000000000D+02
     .648060000000D+05  .400000000000D+01
23 17 10 22 20  0  0.0 -.218275003135D-03 -.227373675443D-12  .000000000000D+00
     .530000000000D+02  .127500000000D+02  .486877423256D-08  .916242679928D-01
     .733882188797D-06  .118565674638D-01  .105910003185D-04  .515366693115D+04
     .720000000000D+05 -.223517417908D-07 -.306820918782D+01  .149011611938D-06
     .944489521437D+00  .165812500000D+03 -.241650284475D+01 -.829213111483D-08
    -.395373611755D-09  .100000000000D+01  .197200000000D+04  .000000000000D+00
     .240000000000D+01  .000000000000D+00 -.204890966415D-07  .530000000000D+02
     .648060000000D+05  .400000000000D+01
24 17 10 22 20  0  0.0 -.412445515394D-04 -.454747350886D-12  .000000000000D+00
     .910000000000D+02  .108125000000D+03  .495092051143D-08 -.429029928053D+00
     .547803938389D-05  .612360669766D-02  .615417957306D-05  .515367598343D+04
     .720000000000D+05  .875443220139D-07 -.204646593234D+01  .894069671631D-07
     .943737862424D+00  .251125000000D+03  .468491454207D+00 -.846999566646D-08
     .120004998690D-09  .100000000000D+01  .197200000000D+04  .000000000000D+00
     .240000000000D+01  .000000000000D+00  .279396772385D-08  .910000000000D+02
     .648060000000D+05  .400000000000D+01
25 17 10 22 20  0  0.0 -.477052293718D-03 -.636646291241D-11  .000000000000D+00
     .180000000000D+02 -.433750000000D+02  .433268047353D-08 -.240530369336D+01
    -.211596488953D-05  .662147824187D-02  .238791108131D-05  .515373515320D+04
     .720000000000D+05 -.298023223877D-07 -.959310297684D+00 -.391155481339D-07
     .975977156589D+00  .341968750000D+03  .815651759855D+00 -.814748223248D-08
    -.135719938995D-09  .100000000000D+01  .197200000000D+04  .000000000000D+00
     .240000000000D+01  .000000000000D+00  .558793544769D-08  .180000000000D+02
     .648060000000D+05  .400000000000D+01
26 17 10 22 20  0  0.0 -.388203654438D-03  .125055521494D-10  .000000000000D+00
     .430000000000D+02 -.310000000000D+02  .480305720947D-08 -.292153085207D+01
    -.160001218319D-05  .210416479968D-02  .219792127609D-05  .515354787254D+04
     .720000000000D+05 -.167638063431D-07 -.977367987917D+00  .502914190292D-07
     .957642936804D+00  .337093750000D+03 -.783818077283D-01 -.847321008607D-08
    -.151077721565D-09  .100000000000D+01  .197200000000D+04  .000000000000D+00
     .240000000000D+01  .000000000000D+00  .745058059692D-08  .430000000000D+02
     .648060000000D+05  .400000000000D+01
27 17 10 22 20  0  0.0  .340001191944D-03  .409272615798D-11  .000000000000D+00
     .480000000000D+02 -.854375000000D+02  .389444793367D-08  .150583765995D+01
    -.447779893875D-05  .498219381552D-02  .964663922787D-05  .515367805099D+04
     .720000000000D+05 -.372529029846D-07  .798908282080D-01  .223517417908D-07
     .976369998369D+00  .202000000000D+03  .382860858137D+00 -.774960851659D-08
    -.782175437889D-10  .100000000000D+01  .197200000000D+04  .000000000000D+00
     .240000000000D+01  .000000000000D+00  .186264514923D-08  .480000000000D+02
     .648060000000D+05  .400000000000D+01
